[Satellite]
VERSION=1.1
NAME=CUTE-1.7+APD II (CO-65)
NICKNAME=CUTE-1.7+APD II (CO-65)
TLE1=1 32785U 08021C   19317.52568043  .00000223  00000-0  29607-4 0  9995
TLE2=2 32785  97.5578 310.3320 0014222 128.6152 231.6341 14.88372656625672
STATUS=0
